SES-20                  
1 53960U 22123A   26162.88797140 -.00000085  00000+0  00000+0 0  9996
2 53960   0.0347  75.6140 0001770   6.5684  34.6215  1.00271689 13487
SES-21                  
1 53961U 22123B   26162.52591726  .00000086  00000+0  00000+0 0  9990
2 53961   0.0262  32.5421 0000921  47.6721 237.9742  1.00269986  7150
GALAXY 33 (G-33)        
1 54026U 22128A   26162.73940325  .00000096  00000+0  00000+0 0  9995
2 54026   0.0068 328.0284 0001667 116.5773 308.6721  1.00270185 13689
GALAXY 34 (G-34)        
1 54027U 22128B   26162.66890682  .00000000  00000+0  00000+0 0  9993
2 54027   0.0219 345.5529 0001576 108.0855 278.1799  1.00273054 13853
ANGOSAT 2               
1 54033U 22131A   26161.55837796  .00000153  00000+0  00000+0 0  9997
2 54033   0.0349  88.7475 0001266  27.5902   6.5973  1.00272183 13415
EUTELSAT HOTBIRD 13F    
1 54048U 22134A   26162.91093499  .00000103  00000+0  00000+0 0  9996
2 54048   0.0449 293.4140 0001971  62.6097 245.1684  1.00271172 13321
LDPE-2                  
1 54219U 22144A   26162.62485858  .00000144  00000+0  00000+0 0  9994
2 54219   5.5990  63.6947 0001834 103.0246 155.5139  1.00529787 11783
EUTELSAT HOTBIRD 13G    
1 54225U 22146A   26162.91093499  .00000103  00000+0  00000+0 0  9996
2 54225   0.0464 228.5580 0002022 316.3573  56.2720  1.00271576  7411
ZHONGXING-19            
1 54230U 22148A   26162.94065410 -.00000065  00000+0  00000+0 0  9997
2 54230   0.0157 307.8899 0002270 159.9963 294.2206  1.00271291 13323
GALAXY 31 (G-31)        
1 54243U 22153A   26162.67046683  .00000030  00000+0  00000+0 0  9999
2 54243   0.0180 295.7377 0001130 136.8388 307.8081  1.00270115  7079
GALAXY 32 (G-32)        
1 54244U 22153B   26162.89031141 -.00000158  00000+0  00000+0 0  9999
2 54244   0.0100   7.3506 0002061  26.1221  96.2732  1.00271384 13094
EUTELSAT 10B            
1 54259U 22157A   26162.69646693  .00000086  00000+0  00000+0 0  9990
2 54259   0.0628 104.1683 0001104 351.0436  65.5811  1.00278962 12974
GALAXY 35 (G-35)        
1 54741U 22170A   26162.60470728 -.00000145  00000+0  00000+0 0  9993
2 54741   0.0155 296.8943 0001888 146.7176 300.9339  1.00270834 12838
GALAXY 36 (G-36)        
1 54742U 22170B   26162.89074475 -.00000169  00000+0  00000+0 0  9990
2 54742   0.0379 128.0646 0002553 314.2948  49.5449  1.00271633 12726
METEOSAT-12 (MTG-I1)    
1 54743U 22170C   26162.90824831  .00000007  00000+0  00000+0 0  9992
2 54743   0.7322  22.0444 0003228  71.9393 132.8078  1.00271747 12924
SHIJIAN-23 (SJ-23)      
1 55131U 23002A   26162.68303639 -.00000206  00000+0  00000+0 0  9994
2 55131   3.7026  78.3803 0003806 272.7782 306.5032  1.00088953 12451
APSTAR-6E               
1 55239U 23005A   26161.66423256 -.00000300  00000+0  00000+0 0  9996
2 55239   0.0249 253.3859 0001043 305.6629  73.1073  1.00270607 18626
USA 342                 
1 55263U 23008A   26161.27337965  .00000000  00000+0  00000+0 0  9990
2 55263   0.0036  23.3608 0000235 273.9776  83.6406  1.00272706 12448
LDPE-3A                 
1 55264U 23008B   26162.89100475 -.00000030  00000+0  00000+0 0  9998
2 55264   2.3332  81.7272 0001109  61.4181 350.2956  0.99145248 11763
ELEKTRO-L 4             
1 55506U 23016A   26161.81950044 -.00000040  00000+0  00000+0 0  9993
2 55506   0.0721 174.0756 0000822   1.1447 184.7922  1.00272872 12276
AMAZONAS NEXUS          
1 55508U 23017A   26162.53978399 -.00000266  00000+0  00000+0 0  9999
2 55508   0.0377  34.4009 0005033  30.2444 328.5655  1.00266544  6985
ZHONGXING-26            
1 55686U 23023A   26162.93311406 -.00000337  00000+0  00000+0 0  9996
2 55686   0.0695  71.6588 0003321  13.4559 276.1632  1.00273187 12170
LUCH-5X (OLYMP-K 2)     
1 55841U 23031A   26162.50530897  .00000050  00000+0  00000+0 0  9999
2 55841   0.0284  60.7738 0000733 170.3710 272.5925  1.00272154 11884
GAOFEN-13 02            
1 55912U 23036A   26162.93744742 -.00000203  00000+0  00000+0 0  9997
2 55912   1.0199   0.4255 0004156 337.0556  48.5785  1.00271705 12042
SES-18                  
1 55970U 23038A   26162.88797140 -.00000085  00000+0  00000+0 0  9995
2 55970   0.0248 287.1701 0000220  22.6944 166.9375  1.00271143 12053
SES-19                  
1 55971U 23038B   26162.73905659  .00000104  00000+0  00000+0 0  9997
2 55971   0.0128 322.8160 0001531 122.6236 305.8090  1.00272382 12030
INTELSAT 40E (IS-40E)   
1 56174U 23052A   26162.53389064  .00000000  00000+0  00000+0 0  9998
2 56174   0.0184  11.4493 0002004 112.2014 237.4225  1.00272650 11760
VIASAT-3 F1             
1 56370U 23060A   26162.60557396  .00000000  00000+0  00000+0 0  9998
2 56370   0.0241 328.9826 0001050 116.9734 303.0262  1.00276196 11375
ARCTURUS                
1 56371U 23060B   26162.97205003 -.00000048  00000+0  00000+0 0  9997
2 56371   2.7627  80.0117 0002386  45.0654 197.6509  1.00272209 11404
GS-1                    
1 56372U 23060C   26159.64661679 -.00000208  00000+0  00000+0 0  9991
2 56372   2.7050  79.9310 0004125 279.9950 219.1575  1.00277054  7453
BEIDOU-3 G4             
1 56564U 23066A   26161.36764115 -.00000265  00000+0  00000+0 0  9994
2 56564   0.4953 329.6081 0004397 171.1303  30.2733  1.00265779 11329
ARABSAT-7B (BADR-8)     
1 56757U 23075A   26162.55701273  .00000161  00000+0  00000+0 0  9990
2 56757   0.0752  27.3353 0004683 354.7630 104.3415  1.00270990 11062
